CCSDS_OMM_VERS = 2.0
CREATION_DATE  = 
ORIGINATOR     = 

OBJECT_NAME    = KUIPER-00117
OBJECT_ID      = 2025-228C
CENTER_NAME    = EARTH
REF_FRAME      = TEME
TIME_SYSTEM    = UTC
MEAN_ELEMENT_THEORY = SGP/SGP4

EPOCH          = 2025-10-26T21:45:34.229952
MEAN_MOTION    = 15.34778399
ECCENTRICITY   = .00061278
INCLINATION    = 51.8804
RA_OF_ASC_NODE = 246.1596
ARG_OF_PERICENTER = 177.3575
MEAN_ANOMALY   = 182.7444

EPHEMERIS_TYPE = 0
CLASSIFICATION_TYPE = U
NORAD_CAT_ID   = 65949
ELEMENT_SET_NO = 999
REV_AT_EPOCH   = 322
BSTAR          = .49317185E-3
MEAN_MOTION_DOT = .16545E-3
MEAN_MOTION_DDOT = 0

CCSDS_OMM_VERS = 2.0
CREATION_DATE  = 
ORIGINATOR     = 

OBJECT_NAME    = KUIPER-00121
OBJECT_ID      = 2025-228D
CENTER_NAME    = EARTH
REF_FRAME      = TEME
TIME_SYSTEM    = UTC
MEAN_ELEMENT_THEORY = SGP/SGP4

EPOCH          = 2025-10-26T21:52:55.903296
MEAN_MOTION    = 15.34204939
ECCENTRICITY   = .00056821
INCLINATION    = 51.8813
RA_OF_ASC_NODE = 246.1957
ARG_OF_PERICENTER = 195.8138
MEAN_ANOMALY   = 164.2671

EPHEMERIS_TYPE = 0
CLASSIFICATION_TYPE = U
NORAD_CAT_ID   = 65950
ELEMENT_SET_NO = 999
REV_AT_EPOCH   = 322
BSTAR          = .70396104E-3
MEAN_MOTION_DOT = .23365E-3
MEAN_MOTION_DDOT = 0

CCSDS_OMM_VERS = 2.0
CREATION_DATE  = 
ORIGINATOR     = 

OBJECT_NAME    = KUIPER-00122
OBJECT_ID      = 2025-228E
CENTER_NAME    = EARTH
REF_FRAME      = TEME
TIME_SYSTEM    = UTC
MEAN_ELEMENT_THEORY = SGP/SGP4

EPOCH          = 2025-10-26T21:54:19.406304
MEAN_MOTION    = 15.34059385
ECCENTRICITY   = .00067281
INCLINATION    = 51.8808
RA_OF_ASC_NODE = 246.1963
ARG_OF_PERICENTER = 199.4056
MEAN_ANOMALY   = 160.6674

EPHEMERIS_TYPE = 0
CLASSIFICATION_TYPE = U
NORAD_CAT_ID   = 65951
ELEMENT_SET_NO = 999
REV_AT_EPOCH   = 322
BSTAR          = .581234E-3
MEAN_MOTION_DOT = .19128E-3
MEAN_MOTION_DDOT = 0

CCSDS_OMM_VERS = 2.0
CREATION_DATE  = 
ORIGINATOR     = 

OBJECT_NAME    = KUIPER-00123
OBJECT_ID      = 2025-228F
CENTER_NAME    = EARTH
REF_FRAME      = TEME
TIME_SYSTEM    = UTC
MEAN_ELEMENT_THEORY = SGP/SGP4

EPOCH          = 2025-10-26T21:53:03.962688
MEAN_MOTION    = 15.34140394
ECCENTRICITY   = .00054581
INCLINATION    = 51.8798
RA_OF_ASC_NODE = 246.1900
ARG_OF_PERICENTER = 190.8810
MEAN_ANOMALY   = 169.2059

EPHEMERIS_TYPE = 0
CLASSIFICATION_TYPE = U
NORAD_CAT_ID   = 65952
ELEMENT_SET_NO = 999
REV_AT_EPOCH   = 322
BSTAR          = .10087864E-2
MEAN_MOTION_DOT = .33622E-3
MEAN_MOTION_DDOT = 0

CCSDS_OMM_VERS = 2.0
CREATION_DATE  = 
ORIGINATOR     = 

OBJECT_NAME    = KUIPER-00124
OBJECT_ID      = 2025-228G
CENTER_NAME    = EARTH
REF_FRAME      = TEME
TIME_SYSTEM    = UTC
MEAN_ELEMENT_THEORY = SGP/SGP4

EPOCH          = 2025-10-26T21:54:55.031616
MEAN_MOTION    = 15.34019201
ECCENTRICITY   = .00055083
INCLINATION    = 51.8810
RA_OF_ASC_NODE = 246.2029
ARG_OF_PERICENTER = 205.4719
MEAN_ANOMALY   = 154.5995

EPHEMERIS_TYPE = 0
CLASSIFICATION_TYPE = U
NORAD_CAT_ID   = 65953
ELEMENT_SET_NO = 999
REV_AT_EPOCH   = 322
BSTAR          = .53170107E-3
MEAN_MOTION_DOT = .17436E-3
MEAN_MOTION_DDOT = 0

CCSDS_OMM_VERS = 2.0
CREATION_DATE  = 
ORIGINATOR     = 

OBJECT_NAME    = KUIPER-00125
OBJECT_ID      = 2025-228H
CENTER_NAME    = EARTH
REF_FRAME      = TEME
TIME_SYSTEM    = UTC
MEAN_ELEMENT_THEORY = SGP/SGP4

EPOCH          = 2025-10-26T21:49:53.149152
MEAN_MOTION    = 15.34430803
ECCENTRICITY   = .00056792
INCLINATION    = 51.8799
RA_OF_ASC_NODE = 246.1755
ARG_OF_PERICENTER = 186.5476
MEAN_ANOMALY   = 173.5436

EPHEMERIS_TYPE = 0
CLASSIFICATION_TYPE = U
NORAD_CAT_ID   = 65954
ELEMENT_SET_NO = 999
REV_AT_EPOCH   = 322
BSTAR          = .53130794E-3
MEAN_MOTION_DOT = .17656E-3
MEAN_MOTION_DDOT = 0

CCSDS_OMM_VERS = 2.0
CREATION_DATE  = 
ORIGINATOR     = 

OBJECT_NAME    = KUIPER-00126
OBJECT_ID      = 2025-228J
CENTER_NAME    = EARTH
REF_FRAME      = TEME
TIME_SYSTEM    = UTC
MEAN_ELEMENT_THEORY = SGP/SGP4

EPOCH          = 2025-10-26T21:53:41.018784
MEAN_MOTION    = 15.34161148
ECCENTRICITY   = .00060227
INCLINATION    = 51.8804
RA_OF_ASC_NODE = 246.1956
ARG_OF_PERICENTER = 200.5363
MEAN_ANOMALY   = 159.5382

EPHEMERIS_TYPE = 0
CLASSIFICATION_TYPE = U
NORAD_CAT_ID   = 65955
ELEMENT_SET_NO = 999
REV_AT_EPOCH   = 322
BSTAR          = .55179233E-3
MEAN_MOTION_DOT = .18195E-3
MEAN_MOTION_DDOT = 0

CCSDS_OMM_VERS = 2.0
CREATION_DATE  = 
ORIGINATOR     = 

OBJECT_NAME    = KUIPER-00127
OBJECT_ID      = 2025-228K
CENTER_NAME    = EARTH
REF_FRAME      = TEME
TIME_SYSTEM    = UTC
MEAN_ELEMENT_THEORY = SGP/SGP4

EPOCH          = 2025-10-26T21:45:58.523904
MEAN_MOTION    = 15.34754405
ECCENTRICITY   = .00060591
INCLINATION    = 51.8806
RA_OF_ASC_NODE = 246.1616
ARG_OF_PERICENTER = 178.8815
MEAN_ANOMALY   = 181.2185

EPHEMERIS_TYPE = 0
CLASSIFICATION_TYPE = U
NORAD_CAT_ID   = 65956
ELEMENT_SET_NO = 999
REV_AT_EPOCH   = 322
BSTAR          = .88892872E-3
MEAN_MOTION_DOT = .3016E-3
MEAN_MOTION_DDOT = 0

CCSDS_OMM_VERS = 2.0
CREATION_DATE  = 
ORIGINATOR     = 

OBJECT_NAME    = KUIPER-00128
OBJECT_ID      = 2025-228L
CENTER_NAME    = EARTH
REF_FRAME      = TEME
TIME_SYSTEM    = UTC
MEAN_ELEMENT_THEORY = SGP/SGP4

EPOCH          = 2025-10-26T21:48:39.745440
MEAN_MOTION    = 15.34532639
ECCENTRICITY   = .00058134
INCLINATION    = 51.8809
RA_OF_ASC_NODE = 246.1760
ARG_OF_PERICENTER = 182.2448
MEAN_ANOMALY   = 177.8513

EPHEMERIS_TYPE = 0
CLASSIFICATION_TYPE = U
NORAD_CAT_ID   = 65957
ELEMENT_SET_NO = 999
REV_AT_EPOCH   = 322
BSTAR          = .57600235E-3
MEAN_MOTION_DOT = .19241E-3
MEAN_MOTION_DDOT = 0

CCSDS_OMM_VERS = 2.0
CREATION_DATE  = 
ORIGINATOR     = 

OBJECT_NAME    = KUIPER-00129
OBJECT_ID      = 2025-228M
CENTER_NAME    = EARTH
REF_FRAME      = TEME
TIME_SYSTEM    = UTC
MEAN_ELEMENT_THEORY = SGP/SGP4

EPOCH          = 2025-10-26T21:48:06.771744
MEAN_MOTION    = 15.34551335
ECCENTRICITY   = .0006138
INCLINATION    = 51.8806
RA_OF_ASC_NODE = 246.1728
ARG_OF_PERICENTER = 177.1229
MEAN_ANOMALY   = 182.9793

EPHEMERIS_TYPE = 0
CLASSIFICATION_TYPE = U
NORAD_CAT_ID   = 65958
ELEMENT_SET_NO = 999
REV_AT_EPOCH   = 322
BSTAR          = .85910553E-3
MEAN_MOTION_DOT = .28941E-3
MEAN_MOTION_DDOT = 0

CCSDS_OMM_VERS = 2.0
CREATION_DATE  = 
ORIGINATOR     = 

OBJECT_NAME    = KUIPER-00130
OBJECT_ID      = 2025-228N
CENTER_NAME    = EARTH
REF_FRAME      = TEME
TIME_SYSTEM    = UTC
MEAN_ELEMENT_THEORY = SGP/SGP4

EPOCH          = 2025-10-26T21:51:10.710432
MEAN_MOTION    = 15.34368320
ECCENTRICITY   = .00052791
INCLINATION    = 51.8801
RA_OF_ASC_NODE = 246.1817
ARG_OF_PERICENTER = 192.8275
MEAN_ANOMALY   = 167.2577

EPHEMERIS_TYPE = 0
CLASSIFICATION_TYPE = U
NORAD_CAT_ID   = 65959
ELEMENT_SET_NO = 999
REV_AT_EPOCH   = 322
BSTAR          = .96200587E-3
MEAN_MOTION_DOT = .32274E-3
MEAN_MOTION_DDOT = 0

CCSDS_OMM_VERS = 2.0
CREATION_DATE  = 
ORIGINATOR     = 

OBJECT_NAME    = KUIPER-00134
OBJECT_ID      = 2025-228P
CENTER_NAME    = EARTH
REF_FRAME      = TEME
TIME_SYSTEM    = UTC
MEAN_ELEMENT_THEORY = SGP/SGP4

EPOCH          = 2025-10-26T21:52:23.206944
MEAN_MOTION    = 15.34252898
ECCENTRICITY   = .00052024
INCLINATION    = 51.8798
RA_OF_ASC_NODE = 246.1868
ARG_OF_PERICENTER = 197.3983
MEAN_ANOMALY   = 162.6825

EPHEMERIS_TYPE = 0
CLASSIFICATION_TYPE = U
NORAD_CAT_ID   = 65960
ELEMENT_SET_NO = 999
REV_AT_EPOCH   = 322
BSTAR          = .87223858E-3
MEAN_MOTION_DOT = .29106E-3
MEAN_MOTION_DDOT = 0

