KUIPER-00117            
1 65949U 25228C   25299.90664618  .00016545  00000+0  49317-3 0  9996
2 65949  51.8804 246.1596 0006127 177.3575 182.7444 15.34778399  3228
KUIPER-00121            
1 65950U 25228D   25299.91175814  .00023365  00000+0  70396-3 0  9993
2 65950  51.8813 246.1957 0005682 195.8138 164.2671 15.34204939  3227
KUIPER-00122            
1 65951U 25228E   25299.91272461  .00019128  00000+0  58123-3 0  9996
2 65951  51.8808 246.1963 0006728 199.4056 160.6674 15.34059385  3226
KUIPER-00123            
1 65952U 25228F   25299.91185142  .00033622  00000+0  10088-2 0  9998
2 65952  51.8798 246.1900 0005458 190.8810 169.2059 15.34140394  3221
KUIPER-00124            
1 65953U 25228G   25299.91313694  .00017436  00000+0  53170-3 0  9999
2 65953  51.8810 246.2029 0005508 205.4719 154.5995 15.34019201  3225
KUIPER-00125            
1 65954U 25228H   25299.90964293  .00017656  00000+0  53131-3 0  9997
2 65954  51.8799 246.1755 0005679 186.5476 173.5436 15.34430803  3221
KUIPER-00126            
1 65955U 25228J   25299.91228031  .00018195  00000+0  55179-3 0  9995
2 65955  51.8804 246.1956 0006022 200.5363 159.5382 15.34161148  3224
KUIPER-00127            
1 65956U 25228K   25299.90692736  .00030160  00000+0  88893-3 0  9997
2 65956  51.8806 246.1616 0006059 178.8815 181.2185 15.34754405  3226
KUIPER-00128            
1 65957U 25228L   25299.90879335  .00019241  00000+0  57600-3 0  9999
2 65957  51.8809 246.1760 0005813 182.2448 177.8513 15.34532639  3227
KUIPER-00129            
1 65958U 25228M   25299.90841171  .00028941  00000+0  85911-3 0  9990
2 65958  51.8806 246.1728 0006138 177.1229 182.9793 15.34551335  3221
KUIPER-00130            
1 65959U 25228N   25299.91054063  .00032274  00000+0  96201-3 0  9996
2 65959  51.8801 246.1817 0005279 192.8275 167.2577 15.34368320  3222
KUIPER-00134            
1 65960U 25228P   25299.91137971  .00029106  00000+0  87224-3 0  9993
2 65960  51.8798 246.1868 0005202 197.3983 162.6825 15.34252898  3224
